[{"OBJECT_NAME":"STARLINK-35095","OBJECT_ID":"2025-192X","EPOCH":"2025-12-07T04:36:38.357568","MEAN_MOTION":15.39711142,"ECCENTRICITY":0.00032136,"INCLINATION":53.1587,"RA_OF_ASC_NODE":307.5889,"ARG_OF_PERICENTER":108.9291,"MEAN_ANOMALY":251.2063,"EPHEMERIS_TYPE":0,"CLASSIFICATION_TYPE":"U","NORAD_CAT_ID":65425,"ELEMENT_SET_NO":999,"REV_AT_EPOCH":1514,"BSTAR":0.0020439924,"MEAN_MOTION_DOT":0.00082503,"MEAN_MOTION_DDOT":0},{"OBJECT_NAME":"STARLINK-34883","OBJECT_ID":"2025-192Y","EPOCH":"2025-12-06T22:29:26.208960","MEAN_MOTION":15.39700033,"ECCENTRICITY":0.0001207,"INCLINATION":53.1598,"RA_OF_ASC_NODE":308.843,"ARG_OF_PERICENTER":95.4135,"MEAN_ANOMALY":264.7007,"EPHEMERIS_TYPE":0,"CLASSIFICATION_TYPE":"U","NORAD_CAT_ID":65426,"ELEMENT_SET_NO":999,"REV_AT_EPOCH":1509,"BSTAR":0.0020026064,"MEAN_MOTION_DOT":0.00080769,"MEAN_MOTION_DDOT":0},{"OBJECT_NAME":"STARLINK-34916","OBJECT_ID":"2025-192Z","EPOCH":"2025-12-07T08:00:03.000384","MEAN_MOTION":15.39547573,"ECCENTRICITY":0.00012291,"INCLINATION":53.1588,"RA_OF_ASC_NODE":307.0275,"ARG_OF_PERICENTER":93.852,"MEAN_ANOMALY":278.0297,"EPHEMERIS_TYPE":0,"CLASSIFICATION_TYPE":"U","NORAD_CAT_ID":65427,"ELEMENT_SET_NO":999,"REV_AT_EPOCH":575,"BSTAR":0.0029485224,"MEAN_MOTION_DOT":0.00119114,"MEAN_MOTION_DDOT":0},{"OBJECT_NAME":"STARLINK-35004","OBJECT_ID":"2025-192AA","EPOCH":"2025-12-07T08:00:03.000384","MEAN_MOTION":15.39544812,"ECCENTRICITY":0.00012007,"INCLINATION":53.1599,"RA_OF_ASC_NODE":306.7705,"ARG_OF_PERICENTER":99.9335,"MEAN_ANOMALY":40.6966,"EPHEMERIS_TYPE":0,"CLASSIFICATION_TYPE":"U","NORAD_CAT_ID":65428,"ELEMENT_SET_NO":999,"REV_AT_EPOCH":590,"BSTAR":0.0033677029,"MEAN_MOTION_DOT":0.00136403,"MEAN_MOTION_DDOT":0},{"OBJECT_NAME":"STARLINK-35014","OBJECT_ID":"2025-192AB","EPOCH":"2025-12-07T08:00:03.000384","MEAN_MOTION":15.39548923,"ECCENTRICITY":0.00011398,"INCLINATION":53.1598,"RA_OF_ASC_NODE":306.8221,"ARG_OF_PERICENTER":86.5375,"MEAN_ANOMALY":28.3317,"EPHEMERIS_TYPE":0,"CLASSIFICATION_TYPE":"U","NORAD_CAT_ID":65429,"ELEMENT_SET_NO":999,"REV_AT_EPOCH":590,"BSTAR":0.0035708403,"MEAN_MOTION_DOT":0.00144836,"MEAN_MOTION_DDOT":0},{"OBJECT_NAME":"STARLINK-35025","OBJECT_ID":"2025-192AC","EPOCH":"2025-12-07T04:29:58.831008","MEAN_MOTION":15.39633198,"ECCENTRICITY":0.00017566,"INCLINATION":53.1596,"RA_OF_ASC_NODE":307.5593,"ARG_OF_PERICENTER":93.1496,"MEAN_ANOMALY":266.971,"EPHEMERIS_TYPE":0,"CLASSIFICATION_TYPE":"U","NORAD_CAT_ID":65430,"ELEMENT_SET_NO":999,"REV_AT_EPOCH":1514,"BSTAR":0.0015305217,"MEAN_MOTION_DOT":0.00061341,"MEAN_MOTION_DDOT":0},{"OBJECT_NAME":"STARLINK-35034","OBJECT_ID":"2025-192AD","EPOCH":"2025-12-07T07:16:52.451040","MEAN_MOTION":15.3965018,"ECCENTRICITY":5.499e-5,"INCLINATION":53.1608,"RA_OF_ASC_NODE":306.8583,"ARG_OF_PERICENTER":94.9727,"MEAN_ANOMALY":265.1341,"EPHEMERIS_TYPE":0,"CLASSIFICATION_TYPE":"U","NORAD_CAT_ID":65431,"ELEMENT_SET_NO":999,"REV_AT_EPOCH":1516,"BSTAR":0.0023225332,"MEAN_MOTION_DOT":0.00093742,"MEAN_MOTION_DDOT":0},{"OBJECT_NAME":"STARLINK-35142","OBJECT_ID":"2025-194A","EPOCH":"2025-12-06T21:54:09.775296","MEAN_MOTION":15.05659223,"ECCENTRICITY":0.00022407,"INCLINATION":97.6028,"RA_OF_ASC_NODE":192.8678,"ARG_OF_PERICENTER":88.4526,"MEAN_ANOMALY":271.6957,"EPHEMERIS_TYPE":0,"CLASSIFICATION_TYPE":"U","NORAD_CAT_ID":65434,"ELEMENT_SET_NO":999,"REV_AT_EPOCH":1568,"BSTAR":0.00054577073,"MEAN_MOTION_DOT":7.825e-5,"MEAN_MOTION_DDOT":0},{"OBJECT_NAME":"STARLINK-34978","OBJECT_ID":"2025-194B","EPOCH":"2025-12-07T01:33:30.723552","MEAN_MOTION":15.05675856,"ECCENTRICITY":0.00022754,"INCLINATION":97.6021,"RA_OF_ASC_NODE":193.1436,"ARG_OF_PERICENTER":64.5309,"MEAN_ANOMALY":295.6153,"EPHEMERIS_TYPE":0,"CLASSIFICATION_TYPE":"U","NORAD_CAT_ID":65435,"ELEMENT_SET_NO":999,"REV_AT_EPOCH":1571,"BSTAR":0.0025420812,"MEAN_MOTION_DOT":0.00036836,"MEAN_MOTION_DDOT":0},{"OBJECT_NAME":"STARLINK-35043","OBJECT_ID":"2025-194C","EPOCH":"2025-12-07T06:21:51.126912","MEAN_MOTION":15.0044709,"ECCENTRICITY":0.00031293,"INCLINATION":97.6021,"RA_OF_ASC_NODE":194.7705,"ARG_OF_PERICENTER":79.2037,"MEAN_ANOMALY":280.9539,"EPHEMERIS_TYPE":0,"CLASSIFICATION_TYPE":"U","NORAD_CAT_ID":65436,"ELEMENT_SET_NO":999,"REV_AT_EPOCH":1583,"BSTAR":-0.0010625014,"MEAN_MOTION_DOT":-0.00013393,"MEAN_MOTION_DDOT":0},{"OBJECT_NAME":"STARLINK-35080","OBJECT_ID":"2025-194D","EPOCH":"2025-12-06T22:30:03.629664","MEAN_MOTION":15.05662246,"ECCENTRICITY":0.0001956,"INCLINATION":97.6018,"RA_OF_ASC_NODE":193.0048,"ARG_OF_PERICENTER":89.5865,"MEAN_ANOMALY":270.5586,"EPHEMERIS_TYPE":0,"CLASSIFICATION_TYPE":"U","NORAD_CAT_ID":65437,"ELEMENT_SET_NO":999,"REV_AT_EPOCH":1569,"BSTAR":0.00087463226,"MEAN_MOTION_DOT":0.00012586,"MEAN_MOTION_DDOT":0},{"OBJECT_NAME":"STARLINK-35068","OBJECT_ID":"2025-194E","EPOCH":"2025-12-07T01:13:32.333952","MEAN_MOTION":15.05652029,"ECCENTRICITY":0.00025165,"INCLINATION":97.603,"RA_OF_ASC_NODE":193.0085,"ARG_OF_PERICENTER":86.8072,"MEAN_ANOMALY":273.3442,"EPHEMERIS_TYPE":0,"CLASSIFICATION_TYPE":"U","NORAD_CAT_ID":65438,"ELEMENT_SET_NO":999,"REV_AT_EPOCH":1570,"BSTAR":0.0002880901,"MEAN_MOTION_DOT":4.099e-5,"MEAN_MOTION_DDOT":0},{"OBJECT_NAME":"STARLINK-35045","OBJECT_ID":"2025-194F","EPOCH":"2025-12-07T00:17:44.801376","MEAN_MOTION":15.05666073,"ECCENTRICITY":0.00024497,"INCLINATION":97.6023,"RA_OF_ASC_NODE":193.0571,"ARG_OF_PERICENTER":70.4712,"MEAN_ANOMALY":289.6779,"EPHEMERIS_TYPE":0,"CLASSIFICATION_TYPE":"U","NORAD_CAT_ID":65439,"ELEMENT_SET_NO":999,"REV_AT_EPOCH":1570,"BSTAR":0.0007847047,"MEAN_MOTION_DOT":0.00011285,"MEAN_MOTION_DDOT":0},{"OBJECT_NAME":"STARLINK-35050","OBJECT_ID":"2025-194G","EPOCH":"2025-12-07T01:25:30.896832","MEAN_MOTION":15.05653122,"ECCENTRICITY":0.00023566,"INCLINATION":97.6025,"RA_OF_ASC_NODE":193.1526,"ARG_OF_PERICENTER":88.0951,"MEAN_ANOMALY":272.0545,"EPHEMERIS_TYPE":0,"CLASSIFICATION_TYPE":"U","NORAD_CAT_ID":65440,"ELEMENT_SET_NO":999,"REV_AT_EPOCH":1571,"BSTAR":0.00045838219,"MEAN_MOTION_DOT":6.56e-5,"MEAN_MOTION_DDOT":0},{"OBJECT_NAME":"STARLINK-35065","OBJECT_ID":"2025-194H","EPOCH":"2025-12-07T07:20:23.472672","MEAN_MOTION":15.05656337,"ECCENTRICITY":0.00022723,"INCLINATION":97.6023,"RA_OF_ASC_NODE":193.2856,"ARG_OF_PERICENTER":85.8499,"MEAN_ANOMALY":274.2987,"EPHEMERIS_TYPE":0,"CLASSIFICATION_TYPE":"U","NORAD_CAT_ID":65441,"ELEMENT_SET_NO":999,"REV_AT_EPOCH":1574,"BSTAR":0.00039954809,"MEAN_MOTION_DOT":5.71e-5,"MEAN_MOTION_DDOT":0},{"OBJECT_NAME":"STARLINK-34679","OBJECT_ID":"2025-194J","EPOCH":"2025-12-07T01:37:28.619904","MEAN_MOTION":15.05659527,"ECCENTRICITY":0.0002027,"INCLINATION":97.6022,"RA_OF_ASC_NODE":193.1397,"ARG_OF_PERICENTER":79.4556,"MEAN_ANOMALY":280.6899,"EPHEMERIS_TYPE":0,"CLASSIFICATION_TYPE":"U","NORAD_CAT_ID":65442,"ELEMENT_SET_NO":999,"REV_AT_EPOCH":1571,"BSTAR":0.00066825008,"MEAN_MOTION_DOT":9.597e-5,"MEAN_MOTION_DDOT":0},{"OBJECT_NAME":"STARLINK-34678","OBJECT_ID":"2025-194K","EPOCH":"2025-12-06T13:39:42.984864","MEAN_MOTION":15.05655768,"ECCENTRICITY":0.00018983,"INCLINATION":97.6018,"RA_OF_ASC_NODE":192.5725,"ARG_OF_PERICENTER":87.3848,"MEAN_ANOMALY":272.7597,"EPHEMERIS_TYPE":0,"CLASSIFICATION_TYPE":"U","NORAD_CAT_ID":65443,"ELEMENT_SET_NO":999,"REV_AT_EPOCH":1563,"BSTAR":0.00062147849,"MEAN_MOTION_DOT":8.919e-5,"MEAN_MOTION_DDOT":0},{"OBJECT_NAME":"STARLINK-35049","OBJECT_ID":"2025-194L","EPOCH":"2025-12-06T13:19:46.882272","MEAN_MOTION":15.05658842,"ECCENTRICITY":0.00016952,"INCLINATION":97.6015,"RA_OF_ASC_NODE":192.5872,"ARG_OF_PERICENTER":80.4932,"MEAN_ANOMALY":279.6487,"EPHEMERIS_TYPE":0,"CLASSIFICATION_TYPE":"U","NORAD_CAT_ID":65444,"ELEMENT_SET_NO":999,"REV_AT_EPOCH":1563,"BSTAR":0.00077490479,"MEAN_MOTION_DOT":0.00011141,"MEAN_MOTION_DDOT":0},{"OBJECT_NAME":"STARLINK-35029","OBJECT_ID":"2025-194M","EPOCH":"2025-12-06T08:24:44.113248","MEAN_MOTION":15.05668348,"ECCENTRICITY":0.00018046,"INCLINATION":97.6019,"RA_OF_ASC_NODE":192.3975,"ARG_OF_PERICENTER":90.3002,"MEAN_ANOMALY":269.8431,"EPHEMERIS_TYPE":0,"CLASSIFICATION_TYPE":"U","NORAD_CAT_ID":65445,"ELEMENT_SET_NO":999,"REV_AT_EPOCH":1560,"BSTAR":0.0014890382,"MEAN_MOTION_DOT":0.00021501,"MEAN_MOTION_DDOT":0},{"OBJECT_NAME":"STARLINK-34991","OBJECT_ID":"2025-194N","EPOCH":"2025-12-06T20:58:20.591616","MEAN_MOTION":15.05657159,"ECCENTRICITY":8.863e-5,"INCLINATION":97.6018,"RA_OF_ASC_NODE":192.9354,"ARG_OF_PERICENTER":75.2054,"MEAN_ANOMALY":284.9271,"EPHEMERIS_TYPE":0,"CLASSIFICATION_TYPE":"U","NORAD_CAT_ID":65446,"ELEMENT_SET_NO":999,"REV_AT_EPOCH":1568,"BSTAR":0.00039168743,"MEAN_MOTION_DOT":5.596e-5,"MEAN_MOTION_DDOT":0},{"OBJECT_NAME":"STARLINK-34920","OBJECT_ID":"2025-194P","EPOCH":"2025-12-07T01:29:30.059808","MEAN_MOTION":15.05660364,"ECCENTRICITY":0.00020713,"INCLINATION":97.6027,"RA_OF_ASC_NODE":193.1485,"ARG_OF_PERICENTER":80.9026,"MEAN_ANOMALY":279.2435,"EPHEMERIS_TYPE":0,"CLASSIFICATION_TYPE":"U","NORAD_CAT_ID":65447,"ELEMENT_SET_NO":999,"REV_AT_EPOCH":1571,"BSTAR":0.00061147148,"MEAN_MOTION_DOT":8.776e-5,"MEAN_MOTION_DDOT":0},{"OBJECT_NAME":"STARLINK-35030","OBJECT_ID":"2025-194Q","EPOCH":"2025-12-07T00:37:39.268416","MEAN_MOTION":15.05660968,"ECCENTRICITY":0.00013721,"INCLINATION":97.5998,"RA_OF_ASC_NODE":193.0394,"ARG_OF_PERICENTER":68.5737,"MEAN_ANOMALY":291.5636,"EPHEMERIS_TYPE":0,"CLASSIFICATION_TYPE":"U","NORAD_CAT_ID":65448,"ELEMENT_SET_NO":999,"REV_AT_EPOCH":1570,"BSTAR":0.00073099998,"MEAN_MOTION_DOT":0.00010506,"MEAN_MOTION_DDOT":0},{"OBJECT_NAME":"STARLINK-35009","OBJECT_ID":"2025-194R","EPOCH":"2025-12-07T07:40:20.580096","MEAN_MOTION":15.05655059,"ECCENTRICITY":0.0002192,"INCLINATION":97.6029,"RA_OF_ASC_NODE":193.4217,"ARG_OF_PERICENTER":83.0015,"MEAN_ANOMALY":277.1461,"EPHEMERIS_TYPE":0,"CLASSIFICATION_TYPE":"U","NORAD_CAT_ID":65449,"ELEMENT_SET_NO":999,"REV_AT_EPOCH":1575,"BSTAR":0.00034094179,"MEAN_MOTION_DOT":4.863e-5,"MEAN_MOTION_DDOT":0}]
